<?xml version="1.0" encoding="UTF-8"?>
<ndm xmlns:xsi="http://www.w3.org/2001/XMLSchema-instance" xsi:noNamespaceSchemaLocation="https://sanaregistry.org/r/ndmxml_unqualified/ndmxml-2.0.0-master-2.0.xsd">
<omm id="CCSDS_OMM_VERS" version="2.0">
<header><CREATION_DATE/><ORIGINATOR/></header><body><segment><metadata><OBJECT_NAME>KUIPER-00027</OBJECT_NAME><OBJECT_ID>2025-088S</OBJECT_ID><CENTER_NAME>EARTH</CENTER_NAME><REF_FRAME>TEME</REF_FRAME><TIME_SYSTEM>UTC</TIME_SYSTEM><MEAN_ELEMENT_THEORY>SGP4</MEAN_ELEMENT_THEORY></metadata><data><meanElements><EPOCH>2025-11-13T02:16:15.008160</EPOCH><MEAN_MOTION>14.79711174</MEAN_MOTION><ECCENTRICITY>.0005334</ECCENTRICITY><INCLINATION>51.9004</INCLINATION><RA_OF_ASC_NODE>251.0604</RA_OF_ASC_NODE><ARG_OF_PERICENTER>126.9061</ARG_OF_PERICENTER><MEAN_ANOMALY>233.2391</MEAN_ANOMALY></meanElements><tleParameters><EPHEMERIS_TYPE>0</EPHEMERIS_TYPE><CLASSIFICATION_TYPE>U</CLASSIFICATION_TYPE><NORAD_CAT_ID>63740</NORAD_CAT_ID><ELEMENT_SET_NO>999</ELEMENT_SET_NO><REV_AT_EPOCH>3035</REV_AT_EPOCH><BSTAR>.12913E-2</BSTAR><MEAN_MOTION_DOT>.9586E-4</MEAN_MOTION_DOT><MEAN_MOTION_DDOT>0</MEAN_MOTION_DDOT></tleParameters></data></segment></body></omm>
<omm id="CCSDS_OMM_VERS" version="2.0">
<header><CREATION_DATE/><ORIGINATOR/></header><body><segment><metadata><OBJECT_NAME>KUIPER-00028</OBJECT_NAME><OBJECT_ID>2025-088T</OBJECT_ID><CENTER_NAME>EARTH</CENTER_NAME><REF_FRAME>TEME</REF_FRAME><TIME_SYSTEM>UTC</TIME_SYSTEM><MEAN_ELEMENT_THEORY>SGP4</MEAN_ELEMENT_THEORY></metadata><data><meanElements><EPOCH>2025-11-13T02:41:11.484672</EPOCH><MEAN_MOTION>14.79473808</MEAN_MOTION><ECCENTRICITY>.0004506</ECCENTRICITY><INCLINATION>51.8998</INCLINATION><RA_OF_ASC_NODE>248.9640</RA_OF_ASC_NODE><ARG_OF_PERICENTER>144.9706</ARG_OF_PERICENTER><MEAN_ANOMALY>215.1553</MEAN_ANOMALY></meanElements><tleParameters><EPHEMERIS_TYPE>0</EPHEMERIS_TYPE><CLASSIFICATION_TYPE>U</CLASSIFICATION_TYPE><NORAD_CAT_ID>63741</NORAD_CAT_ID><ELEMENT_SET_NO>999</ELEMENT_SET_NO><REV_AT_EPOCH>3079</REV_AT_EPOCH><BSTAR>.12883E-2</BSTAR><MEAN_MOTION_DOT>.9508E-4</MEAN_MOTION_DOT><MEAN_MOTION_DDOT>0</MEAN_MOTION_DDOT></tleParameters></data></segment></body></omm>
<omm id="CCSDS_OMM_VERS" version="2.0">
<header><CREATION_DATE/><ORIGINATOR/></header><body><segment><metadata><OBJECT_NAME>KUIPER-00029</OBJECT_NAME><OBJECT_ID>2025-088U</OBJECT_ID><CENTER_NAME>EARTH</CENTER_NAME><REF_FRAME>TEME</REF_FRAME><TIME_SYSTEM>UTC</TIME_SYSTEM><MEAN_ELEMENT_THEORY>SGP4</MEAN_ELEMENT_THEORY></metadata><data><meanElements><EPOCH>2025-11-13T01:56:50.597952</EPOCH><MEAN_MOTION>14.80107607</MEAN_MOTION><ECCENTRICITY>.000985</ECCENTRICITY><INCLINATION>51.9019</INCLINATION><RA_OF_ASC_NODE>246.9789</RA_OF_ASC_NODE><ARG_OF_PERICENTER>98.2514</ARG_OF_PERICENTER><MEAN_ANOMALY>261.9566</MEAN_ANOMALY></meanElements><tleParameters><EPHEMERIS_TYPE>0</EPHEMERIS_TYPE><CLASSIFICATION_TYPE>U</CLASSIFICATION_TYPE><NORAD_CAT_ID>63742</NORAD_CAT_ID><ELEMENT_SET_NO>999</ELEMENT_SET_NO><REV_AT_EPOCH>3034</REV_AT_EPOCH><BSTAR>.11146E-2</BSTAR><MEAN_MOTION_DOT>.8326E-4</MEAN_MOTION_DOT><MEAN_MOTION_DDOT>0</MEAN_MOTION_DDOT></tleParameters></data></segment></body></omm>
<omm id="CCSDS_OMM_VERS" version="2.0">
<header><CREATION_DATE/><ORIGINATOR/></header><body><segment><metadata><OBJECT_NAME>KUIPER-00030</OBJECT_NAME><OBJECT_ID>2025-088V</OBJECT_ID><CENTER_NAME>EARTH</CENTER_NAME><REF_FRAME>TEME</REF_FRAME><TIME_SYSTEM>UTC</TIME_SYSTEM><MEAN_ELEMENT_THEORY>SGP4</MEAN_ELEMENT_THEORY></metadata><data><meanElements><EPOCH>2025-11-13T03:43:29.775936</EPOCH><MEAN_MOTION>14.79960970</MEAN_MOTION><ECCENTRICITY>.0015177</ECCENTRICITY><INCLINATION>51.9007</INCLINATION><RA_OF_ASC_NODE>265.8533</RA_OF_ASC_NODE><ARG_OF_PERICENTER>45.7414</ARG_OF_PERICENTER><MEAN_ANOMALY>314.4791</MEAN_ANOMALY></meanElements><tleParameters><EPHEMERIS_TYPE>0</EPHEMERIS_TYPE><CLASSIFICATION_TYPE>U</CLASSIFICATION_TYPE><NORAD_CAT_ID>63743</NORAD_CAT_ID><ELEMENT_SET_NO>999</ELEMENT_SET_NO><REV_AT_EPOCH>3037</REV_AT_EPOCH><BSTAR>.22094E-2</BSTAR><MEAN_MOTION_DOT>.16703E-3</MEAN_MOTION_DOT><MEAN_MOTION_DDOT>0</MEAN_MOTION_DDOT></tleParameters></data></segment></body></omm>
<omm id="CCSDS_OMM_VERS" version="2.0">
<header><CREATION_DATE/><ORIGINATOR/></header><body><segment><metadata><OBJECT_NAME>KUIPER-00031</OBJECT_NAME><OBJECT_ID>2025-088W</OBJECT_ID><CENTER_NAME>EARTH</CENTER_NAME><REF_FRAME>TEME</REF_FRAME><TIME_SYSTEM>UTC</TIME_SYSTEM><MEAN_ELEMENT_THEORY>SGP4</MEAN_ELEMENT_THEORY></metadata><data><meanElements><EPOCH>2025-11-13T02:25:43.774176</EPOCH><MEAN_MOTION>14.80015000</MEAN_MOTION><ECCENTRICITY>.000578</ECCENTRICITY><INCLINATION>51.8981</INCLINATION><RA_OF_ASC_NODE>252.1512</RA_OF_ASC_NODE><ARG_OF_PERICENTER>86.3729</ARG_OF_PERICENTER><MEAN_ANOMALY>273.7894</MEAN_ANOMALY></meanElements><tleParameters><EPHEMERIS_TYPE>0</EPHEMERIS_TYPE><CLASSIFICATION_TYPE>U</CLASSIFICATION_TYPE><NORAD_CAT_ID>63744</NORAD_CAT_ID><ELEMENT_SET_NO>999</ELEMENT_SET_NO><REV_AT_EPOCH>3027</REV_AT_EPOCH><BSTAR>-.14754E-2</BSTAR><MEAN_MOTION_DOT>-.11476E-3</MEAN_MOTION_DOT><MEAN_MOTION_DDOT>0</MEAN_MOTION_DDOT></tleParameters></data></segment></body></omm>
<omm id="CCSDS_OMM_VERS" version="2.0">
<header><CREATION_DATE/><ORIGINATOR/></header><body><segment><metadata><OBJECT_NAME>KUIPER-00032</OBJECT_NAME><OBJECT_ID>2025-088X</OBJECT_ID><CENTER_NAME>EARTH</CENTER_NAME><REF_FRAME>TEME</REF_FRAME><TIME_SYSTEM>UTC</TIME_SYSTEM><MEAN_ELEMENT_THEORY>SGP4</MEAN_ELEMENT_THEORY></metadata><data><meanElements><EPOCH>2025-11-13T02:33:31.948992</EPOCH><MEAN_MOTION>15.32441884</MEAN_MOTION><ECCENTRICITY>.0005955</ECCENTRICITY><INCLINATION>51.8705</INCLINATION><RA_OF_ASC_NODE>225.6997</RA_OF_ASC_NODE><ARG_OF_PERICENTER>80.9127</ARG_OF_PERICENTER><MEAN_ANOMALY>279.2531</MEAN_ANOMALY></meanElements><tleParameters><EPHEMERIS_TYPE>0</EPHEMERIS_TYPE><CLASSIFICATION_TYPE>U</CLASSIFICATION_TYPE><NORAD_CAT_ID>63745</NORAD_CAT_ID><ELEMENT_SET_NO>999</ELEMENT_SET_NO><REV_AT_EPOCH>3164</REV_AT_EPOCH><BSTAR>.10359E-2</BSTAR><MEAN_MOTION_DOT>.3272E-3</MEAN_MOTION_DOT><MEAN_MOTION_DDOT>0</MEAN_MOTION_DDOT></tleParameters></data></segment></body></omm>
<omm id="CCSDS_OMM_VERS" version="2.0">
<header><CREATION_DATE/><ORIGINATOR/></header><body><segment><metadata><OBJECT_NAME>KUIPER-00033</OBJECT_NAME><OBJECT_ID>2025-088Y</OBJECT_ID><CENTER_NAME>EARTH</CENTER_NAME><REF_FRAME>TEME</REF_FRAME><TIME_SYSTEM>UTC</TIME_SYSTEM><MEAN_ELEMENT_THEORY>SGP4</MEAN_ELEMENT_THEORY></metadata><data><meanElements><EPOCH>2025-11-13T03:17:41.475840</EPOCH><MEAN_MOTION>14.79988903</MEAN_MOTION><ECCENTRICITY>.0004283</ECCENTRICITY><INCLINATION>51.9009</INCLINATION><RA_OF_ASC_NODE>281.9880</RA_OF_ASC_NODE><ARG_OF_PERICENTER>139.1635</ARG_OF_PERICENTER><MEAN_ANOMALY>220.9648</MEAN_ANOMALY></meanElements><tleParameters><EPHEMERIS_TYPE>0</EPHEMERIS_TYPE><CLASSIFICATION_TYPE>U</CLASSIFICATION_TYPE><NORAD_CAT_ID>63746</NORAD_CAT_ID><ELEMENT_SET_NO>999</ELEMENT_SET_NO><REV_AT_EPOCH>3034</REV_AT_EPOCH><BSTAR>.9798E-3</BSTAR><MEAN_MOTION_DOT>.7266E-4</MEAN_MOTION_DOT><MEAN_MOTION_DDOT>0</MEAN_MOTION_DDOT></tleParameters></data></segment></body></omm>
<omm id="CCSDS_OMM_VERS" version="2.0">
<header><CREATION_DATE/><ORIGINATOR/></header><body><segment><metadata><OBJECT_NAME>KUIPER-00034</OBJECT_NAME><OBJECT_ID>2025-088Z</OBJECT_ID><CENTER_NAME>EARTH</CENTER_NAME><REF_FRAME>TEME</REF_FRAME><TIME_SYSTEM>UTC</TIME_SYSTEM><MEAN_ELEMENT_THEORY>SGP4</MEAN_ELEMENT_THEORY></metadata><data><meanElements><EPOCH>2025-11-13T00:29:21.433344</EPOCH><MEAN_MOTION>14.80130217</MEAN_MOTION><ECCENTRICITY>.0003014</ECCENTRICITY><INCLINATION>51.9004</INCLINATION><RA_OF_ASC_NODE>244.7875</RA_OF_ASC_NODE><ARG_OF_PERICENTER>76.7141</ARG_OF_PERICENTER><MEAN_ANOMALY>283.4158</MEAN_ANOMALY></meanElements><tleParameters><EPHEMERIS_TYPE>0</EPHEMERIS_TYPE><CLASSIFICATION_TYPE>U</CLASSIFICATION_TYPE><NORAD_CAT_ID>63747</NORAD_CAT_ID><ELEMENT_SET_NO>999</ELEMENT_SET_NO><REV_AT_EPOCH>3053</REV_AT_EPOCH><BSTAR>.12959E-2</BSTAR><MEAN_MOTION_DOT>.9718E-4</MEAN_MOTION_DOT><MEAN_MOTION_DDOT>0</MEAN_MOTION_DDOT></tleParameters></data></segment></body></omm>

</ndm>
