KUIPER-00027            
1 63740U 25088S   25317.09461815  .00009586  00000+0  12913-2 0  9990
2 63740  51.9004 251.0604 0005334 126.9061 233.2391 14.79711174 30355
KUIPER-00028            
1 63741U 25088T   25317.11193848  .00009508  00000+0  12883-2 0  9992
2 63741  51.8998 248.9640 0004506 144.9706 215.1553 14.79473808 30794
KUIPER-00029            
1 63742U 25088U   25317.08114118  .00008326  00000+0  11146-2 0  9990
2 63742  51.9019 246.9789 0009850  98.2514 261.9566 14.80107607 30344
KUIPER-00030            
1 63743U 25088V   25317.15520574  .00016703  00000+0  22094-2 0  9998
2 63743  51.9007 265.8533 0015177  45.7414 314.4791 14.79960970 30379
KUIPER-00031            
1 63744U 25088W   25317.10120109 -.00011476  00000+0 -14754-2 0  9992
2 63744  51.8981 252.1512 0005780  86.3729 273.7894 14.80015000 30272
KUIPER-00032            
1 63745U 25088X   25317.10661978  .00032720  00000+0  10359-2 0  9997
2 63745  51.8705 225.6997 0005955  80.9127 279.2531 15.32441884 31647
KUIPER-00033            
1 63746U 25088Y   25317.13728560  .00007266  00000+0  97980-3 0  9995
2 63746  51.9009 281.9880 0004283 139.1635 220.9648 14.79988903 30342
KUIPER-00034            
1 63747U 25088Z   25317.02038696  .00009718  00000+0  12959-2 0  9994
2 63747  51.9004 244.7875 0003014  76.7141 283.4158 14.80130217 30538
